{"type": "FeatureCollection", "features": [{"type": "Feature", "properties": {"name": "Ufficio Postale Poste Italiane", "styleUrl": "#icon-1899-0288D1-nodesc"}, "geometry": {"type": "Point", "coordinates": [11.0410578, 45.8914548, 0.0]}}, {"type": "Feature", "properties": {"name": "Ufficio Postale Poste Italiane", "styleUrl": "#icon-1899-0288D1-nodesc"}, "geometry": {"type": "Point", "coordinates": [11.0423545, 45.9042358, 0.0]}}, {"type": "Feature", "properties": {"name": "Ufficio Postale Poste Italiane", "styleUrl": "#icon-1899-0288D1-nodesc"}, "geometry": {"type": "Point", "coordinates": [11.0205537, 45.8861855, 0.0]}}, {"type": "Feature", "properties": {"name": "Ufficio Postale Poste Italiane", "styleUrl": "#icon-1899-0288D1-nodesc"}, "geometry": {"type": "Point", "coordinates": [11.0314028, 45.8710133, 0.0]}}, {"type": "Feature", "properties": {"name": "Ufficio Postale Poste Italiane", "styleUrl": "#icon-1899-0288D1-nodesc"}, "geometry": {"type": "Point", "coordinates": [11.0082813, 45.8847292, 0.0]}}], "name": "/tmp/outputs/"}