{"type":"FeatureCollection","features":[{"type":"Feature","properties":{"name":"Ospedale di Rovereto","styleUrl":"#icon-1899-0288D1-nodesc"},"geometry":{"type":"Point","coordinates":[11.0402386,45.8815541,0]}},{"type":"Feature","properties":{"name":"Solatrix S.p.A. Casa di Cura Polispecialistica","styleUrl":"#icon-1899-0288D1-nodesc"},"geometry":{"type":"Point","coordinates":[11.0457087,45.8977017,0]}},{"type":"Feature","properties":{"name":"Tecnomed Rovereto - Corso Rosmini","styleUrl":"#icon-1899-0288D1-nodesc"},"geometry":{"type":"Point","coordinates":[11.0429455,45.8908144,0]}},{"type":"Feature","properties":{"name":"Centro Sanitario Trento","styleUrl":"#icon-1899-0288D1-nodesc"},"geometry":{"type":"Point","coordinates":[11.0374668,45.8879429,0]}},{"type":"Feature","properties":{"name":"Policura | Centro Medico e Studio Dentistico Rovereto","styleUrl":"#icon-1899-0288D1-nodesc"},"geometry":{"type":"Point","coordinates":[11.0125843,45.8679183,0]}}]}