{"type": "FeatureCollection", "features": [{"type": "Feature", "properties": {"name": "Biblioteca civica \"Girolamo Tartarotti\" di Rovereto", "styleUrl": "#icon-1899-0288D1-nodesc"}, "geometry": {"type": "Point", "coordinates": [11.0442685, 45.8941197, 0.0]}}, {"type": "Feature", "properties": {"name": "Biblioteca del Museo civico", "styleUrl": "#icon-1899-0288D1-nodesc"}, "geometry": {"type": "Point", "coordinates": [11.0386415, 45.8900709, 0.0]}}, {"type": "Feature", "properties": {"name": "BUR - Biblioteca Universitaria Rovereto", "styleUrl": "#icon-1899-0288D1-nodesc"}, "geometry": {"type": "Point", "coordinates": [11.0438199, 45.8942513, 0.0]}}, {"type": "Feature", "properties": {"name": "Municipio Di Rovereto Biblioteca", "styleUrl": "#icon-1899-0288D1-nodesc"}, "geometry": {"type": "Point", "coordinates": [11.0446616, 45.8939927, 0.0]}}, {"type": "Feature", "properties": {"name": "Museo della Citt\u00e0 - Fondazione Museo Civico di Rovereto", "styleUrl": "#icon-1899-0288D1-nodesc"}, "geometry": {"type": "Point", "coordinates": [11.0446176, 45.8867664, 0.0]}}, {"type": "Feature", "properties": {"name": "Leggermente", "styleUrl": "#icon-1899-0288D1-nodesc"}, "geometry": {"type": "Point", "coordinates": [11.0416586, 45.8835435, 0.0]}}], "name": "/tmp/outputs/"}