{"type": "FeatureCollection", "features": [{"type": "Feature", "properties": {"name": "Campo Parrocchia Sacra Famiglia", "styleUrl": "#icon-1899-0288D1-nodesc"}, "geometry": {"type": "Point", "coordinates": [11.0398552, 45.8947494, 0.0]}}, {"type": "Feature", "properties": {"name": "Campo da calcio", "styleUrl": "#icon-1899-0288D1-nodesc"}, "geometry": {"type": "Point", "coordinates": [11.0304594, 45.8839797, 0.0]}}, {"type": "Feature", "properties": {"name": "campo da calcio", "styleUrl": "#icon-1899-0288D1-nodesc"}, "geometry": {"type": "Point", "coordinates": [11.0381298, 45.8823394, 0.0]}}, {"type": "Feature", "properties": {"name": "Campo Sportivo G. Vigagni", "styleUrl": "#icon-1899-0288D1-nodesc"}, "geometry": {"type": "Point", "coordinates": [11.0288044, 45.8683049, 0.0]}}, {"type": "Feature", "properties": {"name": "Centro sportivo Fucine", "styleUrl": "#icon-1899-0288D1-nodesc"}, "geometry": {"type": "Point", "coordinates": [11.0287858, 45.8839557, 0.0]}}, {"type": "Feature", "properties": {"name": "Centro Sportivo Oreste Baratieri", "styleUrl": "#icon-1899-0288D1-nodesc"}, "geometry": {"type": "Point", "coordinates": [11.0399132, 45.8971222, 0.0]}}], "name": "/tmp/outputs/"}