{
  "type": "FeatureCollection",
  "generator": "overpass-turbo",
  "copyright": "The data included in this document is from www.openstreetmap.org. The data is made available under ODbL.",
  "timestamp": "2026-05-21T09:13:25Z",
  "features": [
    {
      "type": "Feature",
      "properties": {
        "@id": "relation/1502238",
        "amenity": "kindergarten",
        "building": "yes",
        "name": "Il Grillo",
        "type": "multipolygon"
      },
      "geometry": {
        "type": "Polygon",
        "coordinates": [
          [
            [
              11.0439183,
              45.9047295
            ],
            [
              11.0441054,
              45.9047481
            ],
            [
              11.0441651,
              45.904754
            ],
            [
              11.044137,
              45.9048911
            ],
            [
              11.0440438,
              45.9048818
            ],
            [
              11.044033,
              45.904935
            ],
            [
              11.0438845,
              45.9049203
            ],
            [
              11.04389,
              45.9048934
            ],
            [
              11.0438066,
              45.9048851
            ],
            [
              11.0438019,
              45.9049083
            ],
            [
              11.0436689,
              45.9048951
            ],
            [
              11.0437071,
              45.9047086
            ],
            [
              11.0439183,
              45.9047295
            ]
          ]
        ]
      },
      "id": "relation/1502238"
    },
    {
      "type": "Feature",
      "properties": {
        "@id": "relation/1502239",
        "amenity": "kindergarten",
        "building": "yes",
        "name": "Rione Nord",
        "type": "multipolygon"
      },
      "geometry": {
        "type": "Polygon",
        "coordinates": [
          [
            [
              11.0439183,
              45.9047295
            ],
            [
              11.0439602,
              45.9045249
            ],
            [
              11.0439234,
              45.9045213
            ],
            [
              11.0439304,
              45.9044868
            ],
            [
              11.0437657,
              45.9044705
            ],
            [
              11.0437777,
              45.9044123
            ],
            [
              11.043758,
              45.9044103
            ],
            [
              11.0437821,
              45.9042926
            ],
            [
              11.0443673,
              45.9043507
            ],
            [
              11.0443302,
              45.904532
            ],
            [
              11.0442133,
              45.9045204
            ],
            [
              11.0442166,
              45.9045044
            ],
            [
              11.0441565,
              45.9044985
            ],
            [
              11.0441054,
              45.9047481
            ],
            [
              11.0439183,
              45.9047295
            ]
          ]
        ]
      },
      "id": "relation/1502239"
    },
    {
      "type": "Feature",
      "properties": {
        "@id": "relation/2785817",
        "amenity": "kindergarten",
        "isced:level": "0",
        "leisure": "garden",
        "type": "multipolygon"
      },
      "geometry": {
        "type": "Polygon",
        "coordinates": [
          [
            [
              11.0362859,
              45.8854969
            ],
            [
              11.0361075,
              45.8855976
            ],
            [
              11.0358584,
              45.8855463
            ],
            [
              11.035922,
              45.8853871
            ],
            [
              11.0348058,
              45.8851018
            ],
            [
              11.03452,
              45.8847671
            ],
            [
              11.0361944,
              45.8849787
            ],
            [
              11.0364286,
              45.8850654
            ],
            [
              11.0363638,
              45.8851452
            ],
            [
              11.0366628,
              45.8852597
            ],
            [
              11.0362859,
              45.8854969
            ]
          ],
          [
            [
              11.0353566,
              45.8850656
            ],
            [
              11.0354112,
              45.8850776
            ],
            [
              11.0353655,
              45.8851837
            ],
            [
              11.035739,
              45.8852545
            ],
            [
              11.0359677,
              45.8853411
            ],
            [
              11.0359448,
              45.8853677
            ],
            [
              11.0361381,
              45.8854395
            ],
            [
              11.0361707,
              45.8853987
            ],
            [
              11.0362681,
              45.8854366
            ],
            [
              11.0363918,
              45.8852821
            ],
            [
              11.0362928,
              45.8852436
            ],
            [
              11.0363133,
              45.885218
            ],
            [
              11.0361438,
              45.8851522
            ],
            [
              11.0361253,
              45.8851753
            ],
            [
              11.0360379,
              45.8851414
            ],
            [
              11.0360161,
              45.8851686
            ],
            [
              11.0358889,
              45.8851324
            ],
            [
              11.0359055,
              45.8850604
            ],
            [
              11.035784,
              45.8850347
            ],
            [
              11.0357718,
              45.8850626
            ],
            [
              11.0356962,
              45.8850466
            ],
            [
              11.0357135,
              45.8850071
            ],
            [
              11.0355099,
              45.884964
            ],
            [
              11.0354971,
              45.8849933
            ],
            [
              11.0353975,
              45.8849722
            ],
            [
              11.0353566,
              45.8850656
            ]
          ]
        ]
      },
      "id": "relation/2785817"
    },
    {
      "type": "Feature",
      "properties": {
        "@id": "relation/7322341",
        "addr:city": "Rovereto",
        "addr:housenumber": "4",
        "addr:postcode": "38068",
        "addr:street": "Via Bianca Laura Saibanti",
        "amenity": "kindergarten",
        "email": "circolo.coordinamento10@provincia.tn.it",
        "name": "Scuola dell'infanza di Rovereto",
        "operator": "Circolo di coordinamento n.10",
        "phone": "+39 0464 435355",
        "type": "multipolygon"
      },
      "geometry": {
        "type": "Polygon",
        "coordinates": [
          [
            [
              11.0361228,
              45.8873404
            ],
            [
              11.0364185,
              45.8873854
            ],
            [
              11.0367323,
              45.8874243
            ],
            [
              11.0366622,
              45.8878787
            ],
            [
              11.036085,
              45.8878197
            ],
            [
              11.0361228,
              45.8873404
            ]
          ]
        ]
      },
      "id": "relation/7322341"
    },
    {
      "type": "Feature",
      "properties": {
        "@id": "relation/8748971",
        "amenity": "kindergarten",
        "isced:level": "0",
        "name": "Asilo Mille Colori",
        "type": "multipolygon"
      },
      "geometry": {
        "type": "Polygon",
        "coordinates": [
          [
            [
              11.0438236,
              45.8974882
            ],
            [
              11.043895,
              45.8974829
            ],
            [
              11.0439115,
              45.8975867
            ],
            [
              11.0439235,
              45.8976591
            ],
            [
              11.0439487,
              45.8978146
            ],
            [
              11.0439917,
              45.8979333
            ],
            [
              11.0439435,
              45.8979032
            ],
            [
              11.0439228,
              45.8978625
            ],
            [
              11.0438305,
              45.8978564
            ],
            [
              11.0437082,
              45.8978484
            ],
            [
              11.042843,
              45.8977741
            ],
            [
              11.0429443,
              45.8973459
            ],
            [
              11.0438236,
              45.8974882
            ]
          ]
        ]
      },
      "id": "relation/8748971"
    },
    {
      "type": "Feature",
      "properties": {
        "@id": "relation/9520240",
        "amenity": "kindergarten",
        "email": "info@asilorosmini.it",
        "isced:level": "0",
        "leisure": "garden",
        "max_age": "6",
        "min_age": "3",
        "name": "Antonio Rosmini",
        "operator": "Associazione Infantile “A. Rosmini” onlus",
        "phone": "+39 0464 421541",
        "type": "multipolygon",
        "website": "https://www.asilorosmini.it/la-scuola/",
        "wheelchair": "yes"
      },
      "geometry": {
        "type": "Polygon",
        "coordinates": [
          [
            [
              11.0427111,
              45.8911118
            ],
            [
              11.0427099,
              45.8910754
            ],
            [
              11.0427088,
              45.8910402
            ],
            [
              11.0427072,
              45.8909904
            ],
            [
              11.042707,
              45.890983
            ],
            [
              11.0428857,
              45.8909802
            ],
            [
              11.0431053,
              45.8909768
            ],
            [
              11.0431063,
              45.8910087
            ],
            [
              11.0431335,
              45.8910082
            ],
            [
              11.0431596,
              45.8910072
            ],
            [
              11.0431733,
              45.8910066
            ],
            [
              11.0431736,
              45.8910913
            ],
            [
              11.0431746,
              45.891326
            ],
            [
              11.0430647,
              45.8913262
            ],
            [
              11.0430636,
              45.8913726
            ],
            [
              11.0434069,
              45.8913604
            ],
            [
              11.0434099,
              45.8915067
            ],
            [
              11.0434308,
              45.8916614
            ],
            [
              11.0433136,
              45.8916729
            ],
            [
              11.0429231,
              45.8917243
            ],
            [
              11.0427246,
              45.8917504
            ],
            [
              11.0427187,
              45.8913521
            ],
            [
              11.0427111,
              45.8911118
            ]
          ]
        ]
      },
      "id": "relation/9520240"
    },
    {
      "type": "Feature",
      "properties": {
        "@id": "relation/11796844",
        "building": "kindergarten",
        "type": "multipolygon"
      },
      "geometry": {
        "type": "Polygon",
        "coordinates": [
          [
            [
              11.043711,
              45.8978256
            ],
            [
              11.0432028,
              45.8977826
            ],
            [
              11.0432383,
              45.8975789
            ],
            [
              11.0437466,
              45.8976219
            ],
            [
              11.043711,
              45.8978256
            ]
          ]
        ]
      },
      "id": "relation/11796844"
    },
    {
      "type": "Feature",
      "properties": {
        "@id": "relation/13485139",
        "amenity": "kindergarten",
        "isced:level": "0",
        "leisure": "garden",
        "name": "Scuola Infanzia Fucine",
        "operator": "Provincia autonoma di Trento",
        "phone": "+39 0464 420477",
        "type": "multipolygon"
      },
      "geometry": {
        "type": "Polygon",
        "coordinates": [
          [
            [
              11.0284321,
              45.8850821
            ],
            [
              11.0285287,
              45.8848039
            ],
            [
              11.0284831,
              45.8845761
            ],
            [
              11.0288344,
              45.8845612
            ],
            [
              11.0288773,
              45.8847824
            ],
            [
              11.0289592,
              45.8847899
            ],
            [
              11.0290101,
              45.8850317
            ],
            [
              11.0290557,
              45.8851063
            ],
            [
              11.029112,
              45.8851035
            ],
            [
              11.0291687,
              45.8855255
            ],
            [
              11.0290933,
              45.8855162
            ],
            [
              11.0285059,
              45.8853911
            ],
            [
              11.0285407,
              45.8852977
            ],
            [
              11.0283583,
              45.8852547
            ],
            [
              11.0284321,
              45.8850821
            ]
          ],
          [
            [
              11.0286091,
              45.8851647
            ],
            [
              11.0286404,
              45.8853272
            ],
            [
              11.0288763,
              45.8853051
            ],
            [
              11.028883,
              45.8853394
            ],
            [
              11.0290722,
              45.8853217
            ],
            [
              11.0290292,
              45.885099
            ],
            [
              11.0288592,
              45.8851149
            ],
            [
              11.0288642,
              45.8851408
            ],
            [
              11.0286091,
              45.8851647
            ]
          ],
          [
            [
              11.0286041,
              45.8850587
            ],
            [
              11.0288254,
              45.885038
            ],
            [
              11.0287837,
              45.8848217
            ],
            [
              11.0288283,
              45.8848176
            ],
            [
              11.0288035,
              45.8846889
            ],
            [
              11.0285375,
              45.8847138
            ],
            [
              11.0286041,
              45.8850587
            ]
          ]
        ]
      },
      "id": "relation/13485139"
    },
    {
      "type": "Feature",
      "properties": {
        "@id": "way/59187612",
        "addr:city": "Rovereto",
        "addr:housenumber": "2",
        "addr:postcode": "38068",
        "addr:street": "Via alla Stazione",
        "amenity": "school",
        "building": "yes",
        "fax": "+39 0464 943313",
        "name": "Scuola dell'infanzia di Marco Rovereto \"G. e A. Rosmini\"",
        "phone": "+39 0464 943313",
        "source": "PCN ortofoto_colore 2006 - autorizzazione 10687/TRI"
      },
      "geometry": {
        "type": "Polygon",
        "coordinates": [
          [
            [
              11.0070866,
              45.8418346
            ],
            [
              11.0070383,
              45.8420124
            ],
            [
              11.0069322,
              45.8419985
            ],
            [
              11.0069489,
              45.8419369
            ],
            [
              11.0068415,
              45.8419227
            ],
            [
              11.0068896,
              45.8417453
            ],
            [
              11.0070005,
              45.8417599
            ],
            [
              11.007013,
              45.8417139
            ],
            [
              11.0071157,
              45.8417274
            ],
            [
              11.0070866,
              45.8418346
            ]
          ]
        ]
      },
      "id": "way/59187612"
    },
    {
      "type": "Feature",
      "properties": {
        "@id": "way/60039937",
        "amenity": "kindergarten",
        "building": "school",
        "check_date": "2023-04-22",
        "isced:level": "0",
        "name": "Scuola dell'Infanzia Clementino Vannetti",
        "source": "PCN ortofoto_colore 2006 - autorizzazione 10687/TRI"
      },
      "geometry": {
        "type": "Polygon",
        "coordinates": [
          [
            [
              11.0434984,
              45.8848162
            ],
            [
              11.0437459,
              45.8846114
            ],
            [
              11.0437879,
              45.884636
            ],
            [
              11.0439211,
              45.8845257
            ],
            [
              11.0440405,
              45.8845956
            ],
            [
              11.0437998,
              45.8847947
            ],
            [
              11.043753,
              45.8847673
            ],
            [
              11.0436816,
              45.8848264
            ],
            [
              11.0437076,
              45.8848417
            ],
            [
              11.0436389,
              45.8848985
            ],
            [
              11.0435674,
              45.8848566
            ],
            [
              11.0434984,
              45.8848162
            ]
          ]
        ]
      },
      "id": "way/60039937"
    },
    {
      "type": "Feature",
      "properties": {
        "@id": "way/62281382",
        "addr:city": "Rovereto",
        "addr:housenumber": "4",
        "addr:postcode": "38068",
        "addr:street": "Via Padre Faustino Monti",
        "addr:unit": "A",
        "amenity": "kindergarten",
        "email": "circolo.coordinamento10@provincia.tn.it",
        "name": "Scuola dell'infanzia di Rovereto S. ILario \"Amici della scuola\"",
        "operator": "circolo di coordinametno n.10",
        "phone": "+39 0464 411901"
      },
      "geometry": {
        "type": "Polygon",
        "coordinates": [
          [
            [
              11.0400358,
              45.9108354
            ],
            [
              11.0400657,
              45.9106709
            ],
            [
              11.0401406,
              45.9106774
            ],
            [
              11.0401728,
              45.9104998
            ],
            [
              11.0403551,
              45.9105158
            ],
            [
              11.0403439,
              45.910578
            ],
            [
              11.0403909,
              45.9105821
            ],
            [
              11.0403659,
              45.9107203
            ],
            [
              11.0403203,
              45.9107163
            ],
            [
              11.0402946,
              45.9108581
            ],
            [
              11.0400358,
              45.9108354
            ]
          ]
        ]
      },
      "id": "way/62281382"
    },
    {
      "type": "Feature",
      "properties": {
        "@id": "way/63073856",
        "amenity": "kindergarten",
        "building": "school",
        "check_date": "2026-04-05",
        "name": "Asilo Antonio Rosmini"
      },
      "geometry": {
        "type": "Polygon",
        "coordinates": [
          [
            [
              11.0427276,
              45.8911235
            ],
            [
              11.0428168,
              45.8911222
            ],
            [
              11.0428939,
              45.891121
            ],
            [
              11.0429735,
              45.8911198
            ],
            [
              11.0430576,
              45.8911185
            ],
            [
              11.0430637,
              45.8913105
            ],
            [
              11.0430252,
              45.8913111
            ],
            [
              11.0430272,
              45.8913732
            ],
            [
              11.0430636,
              45.8913726
            ],
            [
              11.0430666,
              45.8914646
            ],
            [
              11.0429564,
              45.8914663
            ],
            [
              11.0429571,
              45.8914899
            ],
            [
              11.0427677,
              45.8914928
            ],
            [
              11.0427665,
              45.891455
            ],
            [
              11.0427381,
              45.8914554
            ],
            [
              11.0427356,
              45.8913777
            ],
            [
              11.0427337,
              45.8913156
            ],
            [
              11.0427276,
              45.8911235
            ]
          ]
        ]
      },
      "id": "way/63073856"
    },
    {
      "type": "Feature",
      "properties": {
        "@id": "way/64062176",
        "addr:city": "Rovereto",
        "addr:housenumber": "4",
        "addr:postcode": "38068",
        "addr:street": "Via Bianca Laura Saibanti",
        "building": "kindergarten",
        "email": "circolo.coordinamento10@provincia.tn.it",
        "fax": "+39 0464 435355",
        "name": "scuola dell'infanzia di rovereto rione nord",
        "phone": "+39 0464 435355",
        "source": "PCN ortofoto_colore 2006 - autorizzazione 10687/TRI"
      },
      "geometry": {
        "type": "Polygon",
        "coordinates": [
          [
            [
              11.0363388,
              45.8877894
            ],
            [
              11.0363778,
              45.8875676
            ],
            [
              11.0366211,
              45.8875884
            ],
            [
              11.0366044,
              45.8876832
            ],
            [
              11.0366384,
              45.8876861
            ],
            [
              11.036616,
              45.887813
            ],
            [
              11.0363388,
              45.8877894
            ]
          ]
        ]
      },
      "id": "way/64062176"
    },
    {
      "type": "Feature",
      "properties": {
        "@id": "way/67161255",
        "amenity": "kindergarten",
        "building": "yes",
        "isced:level": "0",
        "name": "Scuola dell'Infanzia Rione Sud",
        "source": "PCN ortofoto_colore 2006 - autorizzazione 10687/TRI"
      },
      "geometry": {
        "type": "Polygon",
        "coordinates": [
          [
            [
              11.033581,
              45.880848
            ],
            [
              11.0335988,
              45.8808089
            ],
            [
              11.0333978,
              45.8807645
            ],
            [
              11.0334948,
              45.8805515
            ],
            [
              11.0339029,
              45.8806416
            ],
            [
              11.0337881,
              45.8808937
            ],
            [
              11.033581,
              45.880848
            ]
          ]
        ]
      },
      "id": "way/67161255"
    },
    {
      "type": "Feature",
      "properties": {
        "@id": "way/67244416",
        "addr:city": "Rovereto",
        "addr:housenumber": "9",
        "addr:postcode": "38068",
        "addr:street": "Via Fedrigotti",
        "amenity": "kindergarten",
        "building": "yes",
        "name": "Scuola dell'infanzia di Borgo Sacco",
        "operator": "Scuola dell'infanzia di Borgo Sacco",
        "phone": "+39 0464 430541",
        "source": "PCN ortofoto_colore 2006 - autorizzazione 10687/TRI"
      },
      "geometry": {
        "type": "Polygon",
        "coordinates": [
          [
            [
              11.0201979,
              45.8860172
            ],
            [
              11.0201504,
              45.885868
            ],
            [
              11.0208527,
              45.8857595
            ],
            [
              11.0208993,
              45.8859056
            ],
            [
              11.0205906,
              45.8859532
            ],
            [
              11.0205805,
              45.8859213
            ],
            [
              11.0204036,
              45.8859486
            ],
            [
              11.0204148,
              45.8859837
            ],
            [
              11.0201979,
              45.8860172
            ]
          ]
        ]
      },
      "id": "way/67244416"
    },
    {
      "type": "Feature",
      "properties": {
        "@id": "way/67375806",
        "amenity": "kindergarten",
        "building": "yes",
        "source": "PCN ortofoto_colore 2006 - autorizzazione 10687/TRI"
      },
      "geometry": {
        "type": "Polygon",
        "coordinates": [
          [
            [
              11.0203438,
              45.8827496
            ],
            [
              11.0205241,
              45.8826272
            ],
            [
              11.0207151,
              45.8827635
            ],
            [
              11.0208672,
              45.8827679
            ],
            [
              11.0210524,
              45.8826412
            ],
            [
              11.0212279,
              45.8827656
            ],
            [
              11.0209587,
              45.8829497
            ],
            [
              11.0209408,
              45.8829371
            ],
            [
              11.020833,
              45.8829333
            ],
            [
              11.0208306,
              45.8829666
            ],
            [
              11.0207368,
              45.8829634
            ],
            [
              11.0207391,
              45.8829309
            ],
            [
              11.0206414,
              45.8829275
            ],
            [
              11.0206166,
              45.8829443
            ],
            [
              11.0203438,
              45.8827496
            ]
          ]
        ]
      },
      "id": "way/67375806"
    },
    {
      "type": "Feature",
      "properties": {
        "@id": "way/68992508",
        "addr:city": "Lizzanella",
        "addr:housenumber": "109",
        "addr:postcode": "38068",
        "addr:street": "Corso Verona",
        "amenity": "kindergarten",
        "building": "yes",
        "name": "Scuola dell'infanzia di Lizzanella",
        "operator": "Galli Alberto",
        "phone": "+39 0464 432307",
        "source": "PCN ortofoto_colore 2006 - autorizzazione 10687/TRI"
      },
      "geometry": {
        "type": "Polygon",
        "coordinates": [
          [
            [
              11.0327935,
              45.8748971
            ],
            [
              11.0326427,
              45.8747637
            ],
            [
              11.0328165,
              45.8746684
            ],
            [
              11.0329673,
              45.8748018
            ],
            [
              11.0327935,
              45.8748971
            ]
          ]
        ]
      },
      "id": "way/68992508"
    },
    {
      "type": "Feature",
      "properties": {
        "@id": "way/72557951",
        "addr:city": "Rovereto",
        "addr:housenumber": "10",
        "addr:postcode": "38068",
        "addr:street": "Via Stazione",
        "amenity": "school",
        "name": "Asilo Colle Fiorito",
        "source": "PCN ortofoto_colore 2006 - autorizzazione 10687/TRI"
      },
      "geometry": {
        "type": "Polygon",
        "coordinates": [
          [
            [
              11.0002406,
              45.8615475
            ],
            [
              11.0002412,
              45.8615318
            ],
            [
              11.0001784,
              45.8615304
            ],
            [
              11.000179,
              45.8615169
            ],
            [
              11.0000509,
              45.8615142
            ],
            [
              11.0000549,
              45.8614213
            ],
            [
              11.0001028,
              45.8614223
            ],
            [
              11.0001042,
              45.8613898
            ],
            [
              11.0001051,
              45.8613682
            ],
            [
              11.0003265,
              45.8613728
            ],
            [
              11.0003205,
              45.8615127
            ],
            [
              11.0003192,
              45.8615421
            ],
            [
              11.0003189,
              45.8615491
            ],
            [
              11.0002406,
              45.8615475
            ]
          ]
        ]
      },
      "id": "way/72557951"
    },
    {
      "type": "Feature",
      "properties": {
        "@id": "way/268950804",
        "addr:city": "Noriglio",
        "addr:housenumber": "4",
        "addr:postcode": "38068",
        "addr:street": "Via Achille Romani",
        "amenity": "kindergarten",
        "building": "school",
        "email": "circolo.coordinamento09@provincia.tn.it",
        "name": "Scuola dell'infanzia di Rovereto Noriglio",
        "operator": "Circolo di coordinamento n.9",
        "phone": "+39 0464 437430"
      },
      "geometry": {
        "type": "Polygon",
        "coordinates": [
          [
            [
              11.068315,
              45.881543
            ],
            [
              11.068203,
              45.8815032
            ],
            [
              11.0681583,
              45.8814183
            ],
            [
              11.0681856,
              45.8813352
            ],
            [
              11.0682976,
              45.8812902
            ],
            [
              11.0684941,
              45.8812936
            ],
            [
              11.0685936,
              45.8813387
            ],
            [
              11.0686309,
              45.8814149
            ],
            [
              11.0685911,
              45.8814945
            ],
            [
              11.0684866,
              45.8815343
            ],
            [
              11.068315,
              45.881543
            ]
          ]
        ]
      },
      "id": "way/268950804"
    },
    {
      "type": "Feature",
      "properties": {
        "@id": "node/5690244341",
        "addr:city": "Rovereto",
        "addr:housenumber": "10",
        "addr:postcode": "38068",
        "addr:street": "Via Stazione",
        "amenity": "kindergarten",
        "isced:level": "0",
        "name": "Asilo Colle Fiorito",
        "operator": "Associazione Rudolf Steiner per la pedagogia",
        "phone": "+39 0464 434899",
        "website": "https://www.steinerwaldorf-rovereto.it/"
      },
      "geometry": {
        "type": "Point",
        "coordinates": [
          11.000247,
          45.86147
        ]
      },
      "id": "node/5690244341"
    },
    {
      "type": "Feature",
      "properties": {
        "@id": "node/10718729355",
        "addr:city": "Marco",
        "addr:housenumber": "5",
        "addr:street": "Via Dolní Dobrouc",
        "amenity": "childcare",
        "name": "Asilo Nido - Il Girasole"
      },
      "geometry": {
        "type": "Point",
        "coordinates": [
          11.0074393,
          45.844428
        ]
      },
      "id": "node/10718729355"
    },
    {
      "type": "Feature",
      "properties": {
        "@id": "node/12165557291",
        "addr:city": "Rovereto",
        "addr:housenumber": "6",
        "addr:street": "Via Bianca Laura Saibanti",
        "amenity": "social_facility",
        "name": "Fondazione Famiglia Materna"
      },
      "geometry": {
        "type": "Point",
        "coordinates": [
          11.036156,
          45.8883486
        ]
      },
      "id": "node/12165557291"
    }
  ]
}