{"type": "FeatureCollection", "features": [{"type": "Feature", "properties": {"name": "RSA Fontana", "styleUrl": "#icon-1899-0288D1-nodesc"}, "geometry": {"type": "Point", "coordinates": [11.0379251, 45.8955736, 0.0]}}, {"type": "Feature", "properties": {"name": "Centro Diurno per Anziani Santa Maria", "styleUrl": "#icon-1899-0288D1-nodesc"}, "geometry": {"type": "Point", "coordinates": [11.0433242, 45.8849746, 0.0]}}, {"type": "Feature", "properties": {"name": "R.S.A - S.M. KOLBE", "styleUrl": "#icon-1899-0288D1-nodesc"}, "geometry": {"type": "Point", "coordinates": [11.0202568, 45.8848108, 0.0]}}, {"type": "Feature", "properties": {"name": "Azienda Pubblica di Servizi alla Persona Clementino Vannetti", "styleUrl": "#icon-1899-0288D1-nodesc"}, "geometry": {"type": "Point", "coordinates": [11.0366466, 45.8896928, 0.0]}}, {"type": "Feature", "properties": {"name": "Casa Sacra Famiglia RSA e Centro Diurno Alzheimer", "styleUrl": "#icon-1899-0288D1-nodesc"}, "geometry": {"type": "Point", "coordinates": [11.0358259, 45.8882418, 0.0]}}], "name": "/tmp/outputs/"}