{
  "type": "FeatureCollection",
  "generator": "overpass-turbo",
  "copyright": "The data included in this document is from www.openstreetmap.org. The data is made available under ODbL.",
  "timestamp": "2026-05-21T09:39:48Z",
  "features": [
    {
      "type": "Feature",
      "properties": {
        "@id": "way/1336908610",
        "amenity": "bicycle_parking"
      },
      "geometry": {
        "type": "Polygon",
        "coordinates": [
          [
            [
              11.0270354,
              45.8922601
            ],
            [
              11.027056,
              45.8922542
            ],
            [
              11.0270758,
              45.8922486
            ],
            [
              11.0271376,
              45.8923507
            ],
            [
              11.0270947,
              45.8923619
            ],
            [
              11.0270354,
              45.8922601
            ]
          ]
        ]
      },
      "id": "way/1336908610"
    },
    {
      "type": "Feature",
      "properties": {
        "@id": "node/269676814",
        "amenity": "bicycle_parking",
        "bicycle_parking": "wall_loops",
        "check_date": "2024-09-24",
        "covered": "no"
      },
      "geometry": {
        "type": "Point",
        "coordinates": [
          11.0395961,
          45.8919814
        ]
      },
      "id": "node/269676814"
    },
    {
      "type": "Feature",
      "properties": {
        "@id": "node/964991501",
        "amenity": "bicycle_parking",
        "bicycle_parking": "wall_loops",
        "capacity": "42",
        "covered": "no",
        "opening_hours": "24/7"
      },
      "geometry": {
        "type": "Point",
        "coordinates": [
          11.0435044,
          45.8943025
        ]
      },
      "id": "node/964991501"
    },
    {
      "type": "Feature",
      "properties": {
        "@id": "node/2484350812",
        "amenity": "bicycle_parking",
        "bicycle_parking": "Verona_rack",
        "capacity": "7",
        "covered": "no"
      },
      "geometry": {
        "type": "Point",
        "coordinates": [
          11.0419432,
          45.8908861
        ]
      },
      "id": "node/2484350812"
    },
    {
      "type": "Feature",
      "properties": {
        "@id": "node/2484350813",
        "amenity": "bicycle_parking",
        "bicycle_parking": "Verona_rack",
        "capacity": "7",
        "covered": "no"
      },
      "geometry": {
        "type": "Point",
        "coordinates": [
          11.0407541,
          45.8908944
        ]
      },
      "id": "node/2484350813"
    },
    {
      "type": "Feature",
      "properties": {
        "@id": "node/2484653298",
        "amenity": "bicycle_parking",
        "bicycle_parking": "wall_loops",
        "capacity": "7",
        "covered": "no"
      },
      "geometry": {
        "type": "Point",
        "coordinates": [
          11.0405191,
          45.8899246
        ]
      },
      "id": "node/2484653298"
    },
    {
      "type": "Feature",
      "properties": {
        "@id": "node/2484736042",
        "amenity": "bicycle_parking",
        "bicycle_parking": "anchors",
        "capacity": "2",
        "covered": "no"
      },
      "geometry": {
        "type": "Point",
        "coordinates": [
          11.0425798,
          45.8894998
        ]
      },
      "id": "node/2484736042"
    },
    {
      "type": "Feature",
      "properties": {
        "@id": "node/2484736047",
        "amenity": "bicycle_parking",
        "bicycle_parking": "anchors",
        "capacity": "2",
        "covered": "no"
      },
      "geometry": {
        "type": "Point",
        "coordinates": [
          11.0428482,
          45.889527
        ]
      },
      "id": "node/2484736047"
    },
    {
      "type": "Feature",
      "properties": {
        "@id": "node/2485105722",
        "amenity": "bicycle_parking",
        "bicycle_parking": "Verona_rack",
        "capacity": "7",
        "covered": "no"
      },
      "geometry": {
        "type": "Point",
        "coordinates": [
          11.0431294,
          45.8908659
        ]
      },
      "id": "node/2485105722"
    },
    {
      "type": "Feature",
      "properties": {
        "@id": "node/2485146434",
        "amenity": "bicycle_parking"
      },
      "geometry": {
        "type": "Point",
        "coordinates": [
          11.0451315,
          45.8891131
        ]
      },
      "id": "node/2485146434"
    },
    {
      "type": "Feature",
      "properties": {
        "@id": "node/4005352331",
        "amenity": "bicycle_parking"
      },
      "geometry": {
        "type": "Point",
        "coordinates": [
          11.0340085,
          45.8916236
        ]
      },
      "id": "node/4005352331"
    },
    {
      "type": "Feature",
      "properties": {
        "@id": "node/6817717703",
        "amenity": "bicycle_parking"
      },
      "geometry": {
        "type": "Point",
        "coordinates": [
          11.0343208,
          45.8903262
        ]
      },
      "id": "node/6817717703"
    },
    {
      "type": "Feature",
      "properties": {
        "@id": "node/6817717704",
        "amenity": "bicycle_parking",
        "covered": "no"
      },
      "geometry": {
        "type": "Point",
        "coordinates": [
          11.0342644,
          45.8902061
        ]
      },
      "id": "node/6817717704"
    },
    {
      "type": "Feature",
      "properties": {
        "@id": "node/7894980164",
        "amenity": "bicycle_parking"
      },
      "geometry": {
        "type": "Point",
        "coordinates": [
          11.0340785,
          45.8772376
        ]
      },
      "id": "node/7894980164"
    },
    {
      "type": "Feature",
      "properties": {
        "@id": "node/10287189927",
        "access": "yes",
        "amenity": "bicycle_parking",
        "bicycle_parking": "wall_loops",
        "capacity": "4",
        "covered": "no",
        "parking": "surface"
      },
      "geometry": {
        "type": "Point",
        "coordinates": [
          11.0425808,
          45.8983377
        ]
      },
      "id": "node/10287189927"
    },
    {
      "type": "Feature",
      "properties": {
        "@id": "node/10940266564",
        "amenity": "bicycle_parking",
        "bicycle_parking": "wall_loops",
        "covered": "no"
      },
      "geometry": {
        "type": "Point",
        "coordinates": [
          11.0158977,
          45.869778
        ]
      },
      "id": "node/10940266564"
    },
    {
      "type": "Feature",
      "properties": {
        "@id": "node/10940266565",
        "amenity": "bicycle_parking",
        "bicycle_parking": "wall_loops",
        "covered": "no"
      },
      "geometry": {
        "type": "Point",
        "coordinates": [
          11.0154473,
          45.8695985
        ]
      },
      "id": "node/10940266565"
    },
    {
      "type": "Feature",
      "properties": {
        "@id": "node/12168807532",
        "access": "yes",
        "amenity": "bicycle_parking",
        "bicycle_parking": "lockers",
        "capacity": "4",
        "covered": "yes",
        "fee": "yes"
      },
      "geometry": {
        "type": "Point",
        "coordinates": [
          11.0330688,
          45.8910864
        ]
      },
      "id": "node/12168807532"
    },
    {
      "type": "Feature",
      "properties": {
        "@id": "node/12403459966",
        "amenity": "bicycle_parking",
        "bicycle_parking": "stands"
      },
      "geometry": {
        "type": "Point",
        "coordinates": [
          11.0063104,
          45.8664434
        ]
      },
      "id": "node/12403459966"
    },
    {
      "type": "Feature",
      "properties": {
        "@id": "node/12403472935",
        "amenity": "bicycle_parking"
      },
      "geometry": {
        "type": "Point",
        "coordinates": [
          11.024377,
          45.8818027
        ]
      },
      "id": "node/12403472935"
    },
    {
      "type": "Feature",
      "properties": {
        "@id": "node/12403472941",
        "amenity": "bicycle_parking"
      },
      "geometry": {
        "type": "Point",
        "coordinates": [
          11.0251296,
          45.8820515
        ]
      },
      "id": "node/12403472941"
    },
    {
      "type": "Feature",
      "properties": {
        "@id": "node/12403472947",
        "amenity": "bicycle_parking"
      },
      "geometry": {
        "type": "Point",
        "coordinates": [
          11.0232993,
          45.881479
        ]
      },
      "id": "node/12403472947"
    },
    {
      "type": "Feature",
      "properties": {
        "@id": "node/13675735701",
        "amenity": "bicycle_parking",
        "bicycle_parking": "wall_loops",
        "covered": "no"
      },
      "geometry": {
        "type": "Point",
        "coordinates": [
          11.0419484,
          45.8917781
        ]
      },
      "id": "node/13675735701"
    }
  ]
}