{
  "type": "FeatureCollection",
  "generator": "overpass-turbo",
  "copyright": "The data included in this document is from www.openstreetmap.org. The data is made available under ODbL.",
  "timestamp": "2026-05-21T10:57:13Z",
  "features": [
    {
      "type": "Feature",
      "properties": {
        "@id": "node/298366514",
        "name": "Lizzana",
        "place": "suburb",
        "wikidata": "Q95609579",
        "wikipedia": "it:Lizzana"
      },
      "geometry": {
        "type": "Point",
        "coordinates": [
          11.0321996,
          45.8674253
        ]
      },
      "id": "node/298366514"
    },
    {
      "type": "Feature",
      "properties": {
        "@id": "node/298366515",
        "name": "Lizzanella",
        "place": "suburb",
        "wikidata": "Q112210614"
      },
      "geometry": {
        "type": "Point",
        "coordinates": [
          11.0331522,
          45.8757244
        ]
      },
      "id": "node/298366515"
    },
    {
      "type": "Feature",
      "properties": {
        "@id": "node/298366516",
        "name": "Borgo Sacco",
        "place": "suburb",
        "wikidata": "Q3642519"
      },
      "geometry": {
        "type": "Point",
        "coordinates": [
          11.0259215,
          45.8858198
        ]
      },
      "id": "node/298366516"
    },
    {
      "type": "Feature",
      "properties": {
        "@id": "node/298366517",
        "name": "Santa Maria",
        "place": "suburb"
      },
      "geometry": {
        "type": "Point",
        "coordinates": [
          11.0432818,
          45.8852314
        ]
      },
      "id": "node/298366517"
    },
    {
      "type": "Feature",
      "properties": {
        "@id": "node/298366518",
        "name": "San Giorgio",
        "place": "suburb"
      },
      "geometry": {
        "type": "Point",
        "coordinates": [
          11.03036,
          45.895476
        ]
      },
      "id": "node/298366518"
    },
    {
      "type": "Feature",
      "properties": {
        "@id": "node/298366520",
        "created_by": "Merkaartor 0.13",
        "name": "Brione",
        "place": "suburb"
      },
      "geometry": {
        "type": "Point",
        "coordinates": [
          11.0432887,
          45.9021272
        ]
      },
      "id": "node/298366520"
    },
    {
      "type": "Feature",
      "properties": {
        "@id": "node/298388922",
        "created_by": "Merkaartor 0.13",
        "name": "Sant'Ilario",
        "place": "suburb"
      },
      "geometry": {
        "type": "Point",
        "coordinates": [
          11.0396037,
          45.9086457
        ]
      },
      "id": "node/298388922"
    },
    {
      "type": "Feature",
      "properties": {
        "@id": "node/317401124",
        "ele": "1600",
        "gfoss_id": "23281",
        "istat_id": "2147483647",
        "name": "Zugna",
        "place": "hamlet",
        "population": "1",
        "source": "Istat 2001 - geodati.gfoss.it",
        "wikidata": "Q18483914"
      },
      "geometry": {
        "type": "Point",
        "coordinates": [
          11.0574352,
          45.8085673
        ]
      },
      "id": "node/317401124"
    },
    {
      "type": "Feature",
      "properties": {
        "@id": "node/332782727",
        "name": "Pietra",
        "place": "hamlet"
      },
      "geometry": {
        "type": "Point",
        "coordinates": [
          11.0865709,
          45.8867669
        ]
      },
      "id": "node/332782727"
    },
    {
      "type": "Feature",
      "properties": {
        "@id": "node/410284541",
        "name": "Senter",
        "place": "hamlet",
        "wikidata": "Q18482934"
      },
      "geometry": {
        "type": "Point",
        "coordinates": [
          11.0899143,
          45.8767861
        ]
      },
      "id": "node/410284541"
    },
    {
      "type": "Feature",
      "properties": {
        "@id": "node/1374817791",
        "name": "Zaffoni",
        "place": "hamlet",
        "wikidata": "Q18483821"
      },
      "geometry": {
        "type": "Point",
        "coordinates": [
          11.0668762,
          45.8917497
        ]
      },
      "id": "node/1374817791"
    },
    {
      "type": "Feature",
      "properties": {
        "@id": "node/2626943157",
        "loc_name": "March",
        "name": "Marco",
        "place": "village",
        "population": "2659",
        "wikidata": "Q3845856",
        "wikipedia": "it:Marco (Rovereto)"
      },
      "geometry": {
        "type": "Point",
        "coordinates": [
          11.0098776,
          45.8434211
        ]
      },
      "id": "node/2626943157"
    },
    {
      "type": "Feature",
      "properties": {
        "@id": "node/2627489537",
        "name": "Cisterna",
        "place": "hamlet",
        "wikidata": "Q18479035"
      },
      "geometry": {
        "type": "Point",
        "coordinates": [
          11.0865495,
          45.882846
        ]
      },
      "id": "node/2627489537"
    },
    {
      "type": "Feature",
      "properties": {
        "@id": "node/2627489538",
        "ele": "924",
        "name": "Moietto",
        "place": "hamlet",
        "population": "3",
        "wikidata": "Q18481045"
      },
      "geometry": {
        "type": "Point",
        "coordinates": [
          11.0862671,
          45.8950199
        ]
      },
      "id": "node/2627489538"
    },
    {
      "type": "Feature",
      "properties": {
        "@id": "node/2742429197",
        "name": "Beccacchè",
        "place": "hamlet"
      },
      "geometry": {
        "type": "Point",
        "coordinates": [
          11.0724858,
          45.8819251
        ]
      },
      "id": "node/2742429197"
    },
    {
      "type": "Feature",
      "properties": {
        "@id": "node/2742429198",
        "name": "Costa",
        "place": "hamlet"
      },
      "geometry": {
        "type": "Point",
        "coordinates": [
          11.0727843,
          45.8842484
        ]
      },
      "id": "node/2742429198"
    },
    {
      "type": "Feature",
      "properties": {
        "@id": "node/2742429199",
        "loc_name": "Noréi",
        "name": "Noriglio",
        "name:cim": "Orill",
        "place": "village",
        "wikidata": "Q3878418",
        "wikipedia": "it:Noriglio"
      },
      "geometry": {
        "type": "Point",
        "coordinates": [
          11.0686843,
          45.8838773
        ]
      },
      "id": "node/2742429199"
    },
    {
      "type": "Feature",
      "properties": {
        "@id": "node/13593557948",
        "name": "Saltaria",
        "place": "hamlet"
      },
      "geometry": {
        "type": "Point",
        "coordinates": [
          11.0677277,
          45.895452
        ]
      },
      "id": "node/13593557948"
    }
  ]
}